{
  "norad_id": 51789,
  "name": "STARLINK-3639",
  "history": [
    {
      "epoch": "2026-03-28T19:17:27.627072Z",
      "apogee_km": 540.8521401287353,
      "perigee_km": 538.7056491849416,
      "latitude_deg": 2.3888842906574192e-05,
      "longitude_deg": 147.73011554611386,
      "height_km": 540.6258755972203,
      "semi_major_axis_km": 6917.915894656839,
      "eccentricity": 0.00015514,
      "inclination_deg": 53.2169,
      "raan_deg": 263.3142,
      "arg_perigee_deg": 87.4153,
      "mean_anomaly_deg": 272.7017,
      "mean_motion_rev_day": 15.08828384
    }
  ]
}