{"fetched_at":"2026-03-29T16:36:15Z","count":15609,"tles":[{"name":"STARLINK-3639","line1":"1 51789U 22017X   26087.80379198  .00001375  00000+0  10452-3 0  9990","line2":"2 51789  53.2169 263.3142 0001551  87.4153 272.7017 15.08828384225168","category":"Starlink"}]}